start=new Date('2023-02-09T00:00:00.000Z').valueOf();
sats=[{"MEAN_MOTION_DOT":"0.00013282","OBJECT_NAME":"STARLINK-4019","NORAD_CAT_ID":"52598","PERIOD":"95.438","LAUNCH_DATE":"2022-05-14","ECCENTRICITY":"0.00007920","SITE":"AFETR","PERIAPSIS":"539.232","CLASSIFICATION_TYPE":"U","EPOCH":"2023-02-08T20:54:43.052832","EPHEMERIS_TYPE":"0","MEAN_ANOMALY":"277.1709","TLE_LINE2":"2 52598  53.2168 293.6372 0000792  82.9373 277.1709 15.08828629 41779","RCS_SIZE":"LARGE","APOAPSIS":"540.328","MEAN_ELEMENT_THEORY":"SGP4","TIME_SYSTEM":"UTC","MEAN_MOTION":"15.08828629","BSTAR":"0.00085126000000","SEMIMAJOR_AXIS":"6917.915","OBJECT_ID":"2022-052A","CENTER_NAME":"EARTH","MEAN_MOTION_DDOT":"0.0000000000000","ARG_OF_PERICENTER":"82.9373","DECAY_DATE":null,"INCLINATION":"53.2168","TLE_LINE1":"1 52598U 22052A   23039.87133163  .00013282  00000-0  85126-3 0  9990","COUNTRY_CODE":"US","OBJECT_TYPE":"PAYLOAD","REF_FRAME":"TEME","ELEMENT_SET_NO":"999","REV_AT_EPOCH":"4177","FILE":"3780893","GP_ID":"224859983","RA_OF_ASC_NODE":"293.6372"},{"LAUNCH_DATE":"2022-05-14","NORAD_CAT_ID":"52599","PERIOD":"95.437","CLASSIFICATION_TYPE":"U","PERIAPSIS":"538.874","ECCENTRICITY":"0.00012420","SITE":"AFETR","MEAN_MOTION_DOT":"0.00027206","OBJECT_NAME":"STARLINK-4024","RCS_SIZE":"LARGE","MEAN_ELEMENT_THEORY":"SGP4","APOAPSIS":"540.592","TLE_LINE2":"2 52599  53.2155 288.4344 0001242 111.3899 248.7226 15.08844011 41858","BSTAR":"0.00172070000000","SEMIMAJOR_AXIS":"6917.868","OBJECT_ID":"2022-052B","CENTER_NAME":"EARTH","TIME_SYSTEM":"UTC","MEAN_MOTION":"15.08844011","EPHEMERIS_TYPE":"0","EPOCH":"2023-02-08T21:57:41.918400","MEAN_ANOMALY":"248.7226","DECAY_DATE":null,"MEAN_MOTION_DDOT":"0.0000000000000","ARG_OF_PERICENTER":"111.3899","INCLINATION":"53.2155","TLE_LINE1":"1 52599U 22052B   23039.91506850  .00027206  00000-0  17207-2 0  9998","FILE":"3780893","REV_AT_EPOCH":"4185","GP_ID":"224860733","ELEMENT_SET_NO":"999","RA_OF_ASC_NODE":"288.4344","COUNTRY_CODE":"US","OBJECT_TYPE":"PAYLOAD","REF_FRAME":"TEME"},{"MEAN_MOTION_DDOT":"0.0000000000000","ARG_OF_PERICENTER":"103.1707","DECAY_DATE":null,"INCLINATION":"53.2144","TLE_LINE1":"1 52600U 22052C   23039.90305861  .00009066  00000-0  58675-3 0  9998","COUNTRY_CODE":"US","OBJECT_TYPE":"PAYLOAD","REF_FRAME":"TEME","ELEMENT_SET_NO":"999","FILE":"3780893","REV_AT_EPOCH":"4185","GP_ID":"224859481","RA_OF_ASC_NODE":"288.4901","MEAN_MOTION_DOT":"0.00009066","OBJECT_NAME":"STARLINK-4026","NORAD_CAT_ID":"52600","PERIOD":"95.437","LAUNCH_DATE":"2022-05-14","SITE":"AFETR","ECCENTRICITY":"0.00012010","CLASSIFICATION_TYPE":"U","PERIAPSIS":"538.869","EPOCH":"2023-02-08T21:40:24.263904","EPHEMERIS_TYPE":"0","MEAN_ANOMALY":"256.9419","TLE_LINE2":"2 52600  53.2144 288.4901 0001201 103.1707 256.9419 15.08854767 41854","RCS_SIZE":"LARGE","APOAPSIS":"540.531","MEAN_ELEMENT_THEORY":"SGP4","TIME_SYSTEM":"UTC","MEAN_MOTION":"15.08854767","BSTAR":"0.00058675000000","SEMIMAJOR_AXIS":"6917.835","OBJECT_ID":"2022-052C","CENTER_NAME":"EARTH"},{"MEAN_ANOMALY":"262.2768","EPHEMERIS_TYPE":"0","EPOCH":"2023-02-08T21:51:01.128672","CENTER_NAME":"EARTH","SEMIMAJOR_AXIS":"6917.869","OBJECT_ID":"2022-052D","BSTAR":"-0.00005275100000","MEAN_MOTION":"15.08843600","TIME_SYSTEM":"UTC","MEAN_ELEMENT_THEORY":"SGP4","APOAPSIS":"540.561","RCS_SIZE":"LARGE","TLE_LINE2":"2 52601  53.2166 288.4497 0001195  97.8360 262.2768 15.08843600 41856","OBJECT_NAME":"STARLINK-4027","MEAN_MOTION_DOT":"-0.00001127","PERIAPSIS":"538.908","CLASSIFICATION_TYPE":"U","SITE":"AFETR","ECCENTRICITY":"0.00011950","LAUNCH_DATE":"2022-05-14","PERIOD":"95.437","NORAD_CAT_ID":"52601","REF_FRAME":"TEME","OBJECT_TYPE":"PAYLOAD","COUNTRY_CODE":"US","RA_OF_ASC_NODE":"288.4497","GP_ID":"224859232","FILE":"3780893","REV_AT_EPOCH":"4185","ELEMENT_SET_NO":"999","TLE_LINE1":"1 52601U 22052D   23039.91042973 -.00001127  00000-0 -52751-4 0  9994","INCLINATION":"53.2166","DECAY_DATE":null,"MEAN_MOTION_DDOT":"0.0000000000000","ARG_OF_PERICENTER":"97.8360"},{"OBJECT_NAME":"STARLINK-4012","MEAN_MOTION_DOT":"0.00002861","ECCENTRICITY":"0.00013450","SITE":"AFETR","PERIAPSIS":"538.823","CLASSIFICATION_TYPE":"U","PERIOD":"95.438","NORAD_CAT_ID":"52602","LAUNCH_DATE":"2022-05-14","MEAN_ANOMALY":"261.0543","EPOCH":"2023-02-08T21:45:43.147296","EPHEMERIS_TYPE":"0","MEAN_MOTION":"15.08837220","TIME_SYSTEM":"UTC","CENTER_NAME":"EARTH","SEMIMAJOR_AXIS":"6917.889","OBJECT_ID":"2022-052E","BSTAR":"0.00019778000000","TLE_LINE2":"2 52602  53.2165 288.4676 0001345  99.0601 261.0543 15.08837220 41853","MEAN_ELEMENT_THEORY":"SGP4","APOAPSIS":"540.684","RCS_SIZE":"LARGE","TLE_LINE1":"1 52602U 22052E   23039.90674939  .00002861  00000-0  19778-3 0  9992","INCLINATION":"53.2165","MEAN_MOTION_DDOT":"0.0000000000000","ARG_OF_PERICENTER":"99.0601","DECAY_DATE":null,"REF_FRAME":"TEME","OBJECT_TYPE":"PAYLOAD","COUNTRY_CODE":"US","RA_OF_ASC_NODE":"288.4676","ELEMENT_SET_NO":"999","GP_ID":"224860483","FILE":"3780893","REV_AT_EPOCH":"4185"},{"ELEMENT_SET_NO":"999","REV_AT_EPOCH":"4185","FILE":"3780893","GP_ID":"224860234","RA_OF_ASC_NODE":"288.5421","COUNTRY_CODE":"US","OBJECT_TYPE":"PAYLOAD","REF_FRAME":"TEME","ARG_OF_PERICENTER":"120.7346","MEAN_MOTION_DDOT":"0.0000000000000","DECAY_DATE":null,"INCLINATION":"53.2132","TLE_LINE1":"1 52603U 22052F   23039.89202678  .00007950  00000-0  51700-3 0  9993","TLE_LINE2":"2 52603  53.2132 288.5421 0000867 120.7346 239.3731 15.08842806 41856","RCS_SIZE":"LARGE","MEAN_ELEMENT_THEORY":"SGP4","APOAPSIS":"540.337","TIME_SYSTEM":"UTC","MEAN_MOTION":"15.08842806","BSTAR":"0.00051700000000","SEMIMAJOR_AXIS":"6917.872","CENTER_NAME":"EARTH","OBJECT_ID":"2022-052F","EPOCH":"2023-02-08T21:24:31.113792","EPHEMERIS_TYPE":"0","MEAN_ANOMALY":"239.3731","NORAD_CAT_ID":"52603","PERIOD":"95.437","LAUNCH_DATE":"2022-05-14","ECCENTRICITY":"0.00008670","SITE":"AFETR","CLASSIFICATION_TYPE":"U","PERIAPSIS":"539.137","MEAN_MOTION_DOT":"0.00007950","OBJECT_NAME":"STARLINK-4016"},{"LAUNCH_DATE":"2022-05-14","PERIOD":"95.438","NORAD_CAT_ID":"52604","PERIAPSIS":"539.043","CLASSIFICATION_TYPE":"U","ECCENTRICITY":"0.00010340","SITE":"AFETR","MEAN_MOTION_DOT":"-0.00000851","OBJECT_NAME":"STARLINK-4013","MEAN_ELEMENT_THEORY":"SGP4","APOAPSIS":"540.474","RCS_SIZE":"LARGE","TLE_LINE2":"2 52604  53.2164 288.5040 0001034  87.2808 272.8302 15.08835762 41057","SEMIMAJOR_AXIS":"6917.893","CENTER_NAME":"EARTH","OBJECT_ID":"2022-052G","BSTAR":"-0.00003542300000","MEAN_MOTION":"15.08835762","TIME_SYSTEM":"UTC","EPHEMERIS_TYPE":"0","EPOCH":"2023-02-08T21:35:07.290816","MEAN_ANOMALY":"272.8302","DECAY_DATE":null,"MEAN_MOTION_DDOT":"0.0000000000000","ARG_OF_PERICENTER":"87.2808","TLE_LINE1":"1 52604U 22052G   23039.89938994 -.00000851  00000-0 -35423-4 0  9991","INCLINATION":"53.2164","GP_ID":"224858982","FILE":"3780893","REV_AT_EPOCH":"4105","ELEMENT_SET_NO":"999","RA_OF_ASC_NODE":"288.5040","COUNTRY_CODE":"US","REF_FRAME":"TEME","OBJECT_TYPE":"PAYLOAD"},{"BSTAR":"0.00084129000000","SEMIMAJOR_AXIS":"6917.887","OBJECT_ID":"2022-052H","CENTER_NAME":"EARTH","TIME_SYSTEM":"UTC","MEAN_MOTION":"15.08837893","RCS_SIZE":"LARGE","MEAN_ELEMENT_THEORY":"SGP4","APOAPSIS":"540.634","TLE_LINE2":"2 52605  53.2173 293.3454 0001275 118.2193 241.8928 15.08837893 40988","MEAN_ANOMALY":"241.8928","EPHEMERIS_TYPE":"0","EPOCH":"2023-02-08T22:24:47.902464","CLASSIFICATION_TYPE":"U","PERIAPSIS":"538.870","SITE":"AFETR","ECCENTRICITY":"0.00012750","LAUNCH_DATE":"2022-05-14","NORAD_CAT_ID":"52605","PERIOD":"95.438","OBJECT_NAME":"STARLINK-4000","MEAN_MOTION_DOT":"0.00013126","RA_OF_ASC_NODE":"293.3454","FILE":"3780893","REV_AT_EPOCH":"4098","GP_ID":"224859732","ELEMENT_SET_NO":"999","OBJECT_TYPE":"PAYLOAD","REF_FRAME":"TEME","COUNTRY_CODE":"US","INCLINATION":"53.2173","TLE_LINE1":"1 52605U 22052H   23039.93388776  .00013126  00000-0  84129-3 0  9997","DECAY_DATE":null,"MEAN_MOTION_DDOT":"0.0000000000000","ARG_OF_PERICENTER":"118.2193"},{"RA_OF_ASC_NODE":"288.5209","ELEMENT_SET_NO":"999","GP_ID":"224859984","FILE":"3780893","REV_AT_EPOCH":"4105","REF_FRAME":"TEME","OBJECT_TYPE":"PAYLOAD","COUNTRY_CODE":"US","TLE_LINE1":"1 52606U 22052J   23039.89570834  .00008159  00000-0  53014-3 0  9990","INCLINATION":"53.2148","MEAN_MOTION_DDOT":"0.0000000000000","ARG_OF_PERICENTER":"102.8039","DECAY_DATE":null,"MEAN_MOTION":"15.08838500","TIME_SYSTEM":"UTC","SEMIMAJOR_AXIS":"6917.885","CENTER_NAME":"EARTH","OBJECT_ID":"2022-052J","BSTAR":"0.00053014000000","TLE_LINE2":"2 52606  53.2148 288.5209 0001053 102.8039 257.3071 15.08838500 41053","MEAN_ELEMENT_THEORY":"SGP4","APOAPSIS":"540.478","RCS_SIZE":"LARGE","MEAN_ANOMALY":"257.3071","EPOCH":"2023-02-08T21:29:49.200576","EPHEMERIS_TYPE":"0","SITE":"AFETR","ECCENTRICITY":"0.00010530","CLASSIFICATION_TYPE":"U","PERIAPSIS":"539.022","PERIOD":"95.438","NORAD_CAT_ID":"52606","LAUNCH_DATE":"2022-05-14","OBJECT_NAME":"STARLINK-3928","MEAN_MOTION_DOT":"0.00008159"},{"DECAY_DATE":null,"MEAN_MOTION_DDOT":"0.0000000000000","ARG_OF_PERICENTER":"126.1092","INCLINATION":"53.2183","TLE_LINE1":"1 52607U 22052K   23039.92653135  .00001075  00000-0  85604-4 0  9992","COUNTRY_CODE":"US","OBJECT_TYPE":"PAYLOAD","REF_FRAME":"TEME","REV_AT_EPOCH":"4097","FILE":"3780893","GP_ID":"224860734","ELEMENT_SET_NO":"999","RA_OF_ASC_NODE":"293.3874","MEAN_MOTION_DOT":"0.00001075","OBJECT_NAME":"STARLINK-3947","LAUNCH_DATE":"2022-05-14","NORAD_CAT_ID":"52607","PERIOD":"95.438","CLASSIFICATION_TYPE":"U","PERIAPSIS":"538.471","SITE":"AFETR","ECCENTRICITY":"0.00018420","EPHEMERIS_TYPE":"0","EPOCH":"2023-02-08T22:14:12.308640","MEAN_ANOMALY":"234.0071","RCS_SIZE":"LARGE","MEAN_ELEMENT_THEORY":"SGP4","APOAPSIS":"541.019","TLE_LINE2":"2 52607  53.2183 293.3874 0001842 126.1092 234.0071 15.08840102 40972","BSTAR":"0.00008560400000","SEMIMAJOR_AXIS":"6917.880","OBJECT_ID":"2022-052K","CENTER_NAME":"EARTH","TIME_SYSTEM":"UTC","MEAN_MOTION":"15.08840102"}];
